UNKNOWN                 
1 81317U          25306.62364043  .00000177  00000+0  40369-3 0  9993
2 81317  67.1360 264.9502 0206301  62.7077 112.0499 13.37976265583263
UNKNOWN                 
1 81323U          25305.84167328  .00011259  00000+0  15223-2 0  9993
2 81323  65.7498 143.1955 0346632 334.7790  23.6718 14.45402715107146
UNKNOWN                 
1 81329U          25304.85803876  .00004556  00000+0  16841-2 0  9993
2 81329  65.8236 225.9394 0828932  49.0748 317.9104 13.21881284572549
UNKNOWN                 
1 81341U          25299.61362430 -.00005400  00000+0 -13771-1 0  9999
2 81341  99.4856 248.6679 0365635 261.2699  94.6838 12.96575352517315
UNKNOWN                 
1 81343U          25306.23847037  .00008080  00000+0  59639-3 0  9999
2 81343  85.8742 220.9758 0011848  55.7788 304.4566 15.03068585448230
UNKNOWN                 
1 81359U          25306.56653304  .00000883  00000+0  89651-3 0  9994
2 81359  66.7974 148.1399 0113571 350.7921   9.1067 13.78747782599940
UNKNOWN                 
1 81366U          25303.06912954  .00001604  00000+0  59856-3 0  9999
2 81366  65.8831 175.3263 0710438 103.0060 265.1237 13.44992732 60081
UNKNOWN                 
1 81371U          25292.04788232  .00009176  00000+0  14919-2 0  9992
2 81371  98.8161  24.1082 0071589 174.2918 185.9118 14.69623870633803
UNKNOWN                 
1 81386U          25305.67133190  .00007966  00000+0  26587-2 0  9998
2 81386  71.0465  85.5911 0089089 151.8685 208.7305 14.35511185618349
UNKNOWN                 
1 81390U          25305.44668238 -.00000549  00000+0 -37607-2 0  9991
2 81390 103.1033 191.4173 0169111 219.4806 139.3827 12.35664661494997
UNKNOWN                 
1 81392U          25301.20706881  .00003766  00000+0  35799-2 0  9992
2 81392 100.3962 284.8659 0035918 147.2379 236.1633 13.81262986595893
UNKNOWN                 
1 81405U          25306.35264018  .00001634  00000+0  12620-2 0  9999
2 81405  99.4680 353.8711 0158545 331.9698  27.2987 13.88686156556194
