CCSDS_OMM_VERS = 2.0
CREATION_DATE  = 
ORIGINATOR     = 

OBJECT_NAME    = UNKNOWN
OBJECT_ID      = 
CENTER_NAME    = EARTH
REF_FRAME      = TEME
TIME_SYSTEM    = UTC
MEAN_ELEMENT_THEORY = SGP/SGP4

EPOCH          = 2025-11-02T14:58:02.533152
MEAN_MOTION    = 13.37976265
ECCENTRICITY   = .0206301
INCLINATION    = 67.1360
RA_OF_ASC_NODE = 264.9502
ARG_OF_PERICENTER = 62.7077
MEAN_ANOMALY   = 112.0499

EPHEMERIS_TYPE = 0
CLASSIFICATION_TYPE = U
NORAD_CAT_ID   = 81317
ELEMENT_SET_NO = 999
REV_AT_EPOCH   = 58326
BSTAR          = .40369E-3
MEAN_MOTION_DOT = .177E-5
MEAN_MOTION_DDOT = 0

CCSDS_OMM_VERS = 2.0
CREATION_DATE  = 
ORIGINATOR     = 

OBJECT_NAME    = UNKNOWN
OBJECT_ID      = 
CENTER_NAME    = EARTH
REF_FRAME      = TEME
TIME_SYSTEM    = UTC
MEAN_ELEMENT_THEORY = SGP/SGP4

EPOCH          = 2025-11-01T20:12:00.571392
MEAN_MOTION    = 14.45402715
ECCENTRICITY   = .0346632
INCLINATION    = 65.7498
RA_OF_ASC_NODE = 143.1955
ARG_OF_PERICENTER = 334.7790
MEAN_ANOMALY   = 23.6718

EPHEMERIS_TYPE = 0
CLASSIFICATION_TYPE = U
NORAD_CAT_ID   = 81323
ELEMENT_SET_NO = 999
REV_AT_EPOCH   = 10714
BSTAR          = .15223E-2
MEAN_MOTION_DOT = .11259E-3
MEAN_MOTION_DDOT = 0

CCSDS_OMM_VERS = 2.0
CREATION_DATE  = 
ORIGINATOR     = 

OBJECT_NAME    = UNKNOWN
OBJECT_ID      = 
CENTER_NAME    = EARTH
REF_FRAME      = TEME
TIME_SYSTEM    = UTC
MEAN_ELEMENT_THEORY = SGP/SGP4

EPOCH          = 2025-10-31T20:35:34.548864
MEAN_MOTION    = 13.21881284
ECCENTRICITY   = .0828932
INCLINATION    = 65.8236
RA_OF_ASC_NODE = 225.9394
ARG_OF_PERICENTER = 49.0748
MEAN_ANOMALY   = 317.9104

EPHEMERIS_TYPE = 0
CLASSIFICATION_TYPE = U
NORAD_CAT_ID   = 81329
ELEMENT_SET_NO = 999
REV_AT_EPOCH   = 57254
BSTAR          = .16841E-2
MEAN_MOTION_DOT = .4556E-4
MEAN_MOTION_DDOT = 0

CCSDS_OMM_VERS = 2.0
CREATION_DATE  = 
ORIGINATOR     = 

OBJECT_NAME    = UNKNOWN
OBJECT_ID      = 
CENTER_NAME    = EARTH
REF_FRAME      = TEME
TIME_SYSTEM    = UTC
MEAN_ELEMENT_THEORY = SGP/SGP4

EPOCH          = 2025-10-26T14:43:37.139520
MEAN_MOTION    = 12.96575352
ECCENTRICITY   = .0365635
INCLINATION    = 99.4856
RA_OF_ASC_NODE = 248.6679
ARG_OF_PERICENTER = 261.2699
MEAN_ANOMALY   = 94.6838

EPHEMERIS_TYPE = 0
CLASSIFICATION_TYPE = U
NORAD_CAT_ID   = 81341
ELEMENT_SET_NO = 999
REV_AT_EPOCH   = 51731
BSTAR          = -.13771E-1
MEAN_MOTION_DOT = -.54E-4
MEAN_MOTION_DDOT = 0

CCSDS_OMM_VERS = 2.0
CREATION_DATE  = 
ORIGINATOR     = 

OBJECT_NAME    = UNKNOWN
OBJECT_ID      = 
CENTER_NAME    = EARTH
REF_FRAME      = TEME
TIME_SYSTEM    = UTC
MEAN_ELEMENT_THEORY = SGP/SGP4

EPOCH          = 2025-11-02T05:43:23.839968
MEAN_MOTION    = 15.03068585
ECCENTRICITY   = .0011848
INCLINATION    = 85.8742
RA_OF_ASC_NODE = 220.9758
ARG_OF_PERICENTER = 55.7788
MEAN_ANOMALY   = 304.4566

EPHEMERIS_TYPE = 0
CLASSIFICATION_TYPE = U
NORAD_CAT_ID   = 81343
ELEMENT_SET_NO = 999
REV_AT_EPOCH   = 44823
BSTAR          = .59639E-3
MEAN_MOTION_DOT = .808E-4
MEAN_MOTION_DDOT = 0

CCSDS_OMM_VERS = 2.0
CREATION_DATE  = 
ORIGINATOR     = 

OBJECT_NAME    = UNKNOWN
OBJECT_ID      = 
CENTER_NAME    = EARTH
REF_FRAME      = TEME
TIME_SYSTEM    = UTC
MEAN_ELEMENT_THEORY = SGP/SGP4

EPOCH          = 2025-11-02T13:35:48.454656
MEAN_MOTION    = 13.78747782
ECCENTRICITY   = .0113571
INCLINATION    = 66.7974
RA_OF_ASC_NODE = 148.1399
ARG_OF_PERICENTER = 350.7921
MEAN_ANOMALY   = 9.1067

EPHEMERIS_TYPE = 0
CLASSIFICATION_TYPE = U
NORAD_CAT_ID   = 81359
ELEMENT_SET_NO = 999
REV_AT_EPOCH   = 59994
BSTAR          = .89651E-3
MEAN_MOTION_DOT = .883E-5
MEAN_MOTION_DDOT = 0

CCSDS_OMM_VERS = 2.0
CREATION_DATE  = 
ORIGINATOR     = 

OBJECT_NAME    = UNKNOWN
OBJECT_ID      = 
CENTER_NAME    = EARTH
REF_FRAME      = TEME
TIME_SYSTEM    = UTC
MEAN_ELEMENT_THEORY = SGP/SGP4

EPOCH          = 2025-10-30T01:39:32.792256
MEAN_MOTION    = 13.44992732
ECCENTRICITY   = .0710438
INCLINATION    = 65.8831
RA_OF_ASC_NODE = 175.3263
ARG_OF_PERICENTER = 103.0060
MEAN_ANOMALY   = 265.1237

EPHEMERIS_TYPE = 0
CLASSIFICATION_TYPE = U
NORAD_CAT_ID   = 81366
ELEMENT_SET_NO = 999
REV_AT_EPOCH   = 6008
BSTAR          = .59856E-3
MEAN_MOTION_DOT = .1604E-4
MEAN_MOTION_DDOT = 0

CCSDS_OMM_VERS = 2.0
CREATION_DATE  = 
ORIGINATOR     = 

OBJECT_NAME    = UNKNOWN
OBJECT_ID      = 
CENTER_NAME    = EARTH
REF_FRAME      = TEME
TIME_SYSTEM    = UTC
MEAN_ELEMENT_THEORY = SGP/SGP4

EPOCH          = 2025-10-19T01:08:57.032448
MEAN_MOTION    = 14.69623870
ECCENTRICITY   = .0071589
INCLINATION    = 98.8161
RA_OF_ASC_NODE = 24.1082
ARG_OF_PERICENTER = 174.2918
MEAN_ANOMALY   = 185.9118

EPHEMERIS_TYPE = 0
CLASSIFICATION_TYPE = U
NORAD_CAT_ID   = 81371
ELEMENT_SET_NO = 999
REV_AT_EPOCH   = 63380
BSTAR          = .14919E-2
MEAN_MOTION_DOT = .9176E-4
MEAN_MOTION_DDOT = 0

CCSDS_OMM_VERS = 2.0
CREATION_DATE  = 
ORIGINATOR     = 

OBJECT_NAME    = UNKNOWN
OBJECT_ID      = 
CENTER_NAME    = EARTH
REF_FRAME      = TEME
TIME_SYSTEM    = UTC
MEAN_ELEMENT_THEORY = SGP/SGP4

EPOCH          = 2025-11-01T16:06:43.076160
MEAN_MOTION    = 14.35511185
ECCENTRICITY   = .0089089
INCLINATION    = 71.0465
RA_OF_ASC_NODE = 85.5911
ARG_OF_PERICENTER = 151.8685
MEAN_ANOMALY   = 208.7305

EPHEMERIS_TYPE = 0
CLASSIFICATION_TYPE = U
NORAD_CAT_ID   = 81386
ELEMENT_SET_NO = 999
REV_AT_EPOCH   = 61834
BSTAR          = .26587E-2
MEAN_MOTION_DOT = .7966E-4
MEAN_MOTION_DDOT = 0

CCSDS_OMM_VERS = 2.0
CREATION_DATE  = 
ORIGINATOR     = 

OBJECT_NAME    = UNKNOWN
OBJECT_ID      = 
CENTER_NAME    = EARTH
REF_FRAME      = TEME
TIME_SYSTEM    = UTC
MEAN_ELEMENT_THEORY = SGP/SGP4

EPOCH          = 2025-11-01T10:43:13.357632
MEAN_MOTION    = 12.35664661
ECCENTRICITY   = .0169111
INCLINATION    = 103.1033
RA_OF_ASC_NODE = 191.4173
ARG_OF_PERICENTER = 219.4806
MEAN_ANOMALY   = 139.3827

EPHEMERIS_TYPE = 0
CLASSIFICATION_TYPE = U
NORAD_CAT_ID   = 81390
ELEMENT_SET_NO = 999
REV_AT_EPOCH   = 49499
BSTAR          = -.37607E-2
MEAN_MOTION_DOT = -.549E-5
MEAN_MOTION_DDOT = 0

CCSDS_OMM_VERS = 2.0
CREATION_DATE  = 
ORIGINATOR     = 

OBJECT_NAME    = UNKNOWN
OBJECT_ID      = 
CENTER_NAME    = EARTH
REF_FRAME      = TEME
TIME_SYSTEM    = UTC
MEAN_ELEMENT_THEORY = SGP/SGP4

EPOCH          = 2025-10-28T04:58:10.745184
MEAN_MOTION    = 13.81262986
ECCENTRICITY   = .0035918
INCLINATION    = 100.3962
RA_OF_ASC_NODE = 284.8659
ARG_OF_PERICENTER = 147.2379
MEAN_ANOMALY   = 236.1633

EPHEMERIS_TYPE = 0
CLASSIFICATION_TYPE = U
NORAD_CAT_ID   = 81392
ELEMENT_SET_NO = 999
REV_AT_EPOCH   = 59589
BSTAR          = .35799E-2
MEAN_MOTION_DOT = .3766E-4
MEAN_MOTION_DDOT = 0

CCSDS_OMM_VERS = 2.0
CREATION_DATE  = 
ORIGINATOR     = 

OBJECT_NAME    = UNKNOWN
OBJECT_ID      = 
CENTER_NAME    = EARTH
REF_FRAME      = TEME
TIME_SYSTEM    = UTC
MEAN_ELEMENT_THEORY = SGP/SGP4

EPOCH          = 2025-11-02T08:27:48.111552
MEAN_MOTION    = 13.88686156
ECCENTRICITY   = .0158545
INCLINATION    = 99.4680
RA_OF_ASC_NODE = 353.8711
ARG_OF_PERICENTER = 331.9698
MEAN_ANOMALY   = 27.2987

EPHEMERIS_TYPE = 0
CLASSIFICATION_TYPE = U
NORAD_CAT_ID   = 81405
ELEMENT_SET_NO = 999
REV_AT_EPOCH   = 55619
BSTAR          = .1262E-2
MEAN_MOTION_DOT = .1634E-4
MEAN_MOTION_DDOT = 0

